0 FENGYUN 1C DEB
1 32159U 99025CTD 13285.74389568  .00083009  00000-0  38214-2 0  7509
2 32159 098.9464 203.5210 0081488 227.1948 132.2411 15.17004530337718
0 FENGYUN 1C DEB
1 32159U 99025CTD 13285.74425885  .00083088  00000-0  38264-2 0  7492
2 32159 098.9481 203.5233 0081193 227.7068 133.7092 15.17012754337723
0 FENGYUN 1C DEB
1 32159U 99025CTD 13289.23907788  .00112397  00000-0  50594-2 0  7516
2 32159 098.9468 207.6455 0081085 214.9360 144.6533 15.17662899338242
0 FENGYUN 1C DEB
1 32159U 99025CTD 13289.96429382  .00107883  00000-0  48432-2 0  7528
2 32159 098.9453 208.4975 0080918 211.9252 147.7060 15.17784483338358
0 FENGYUN 1C DEB
1 32159U 99025CTD 13291.01903824  .00106030  00000-0  47334-2 0  7539
2 32159 098.9475 209.7474 0080614 208.4976 151.1835 15.18002993338514
0 FENGYUN 1C DEB
1 32159U 99025CTD 13292.00773021  .00095715  00000-0  42566-2 0  7543
2 32159 098.9477 210.9155 0080529 205.1117 154.6188 15.18182390338667
0 FENGYUN 1C DEB
1 32159U 99025CTD 13293.58939245  .00105867  00000-0  46636-2 0  7552
2 32159 098.9474 212.7846 0080458 199.5165 160.2980 15.18462427338903
0 FENGYUN 1C DEB
1 32159U 99025CTD 13294.57778105  .00124660  00000-0  54504-2 0  7564
2 32159 098.9472 213.9531 0080425 196.0633 163.8045 15.18636694339058
0 FENGYUN 1C DEB
1 32159U 99025CTD 13294.97310511  .00104646  00000-0  45785-2 0  7575
2 32159 098.9473 214.4202 0080392 194.6804 165.2091 15.18701061339112
0 FENGYUN 1C DEB
1 32159U 99025CTD 13296.02721240  .00120673  00000-0  52377-2 0  7582
2 32159 098.9465 215.6677 0080396 191.1233 168.8222 15.18900459339278
